{
  "_updated_at": "2026-04-05T01:37:18Z",
  "_source": "Celestrak GP / GitHub Actions auto-update",
  "_update_interval": "daily at UTC 02:00",
  "_warnings": [],
  "satellites": [
    {
      "name": "SES-12",
      "catnr": 43488,
      "orbit": "GEO",
      "line0": "SES-12",
      "line1": "1 43488U 18049A   26094.12376627 -.00000270  00000+0  00000+0 0  9992",
      "line2": "2 43488   0.0420  45.9560 0001658 264.8490  21.1879  1.00271563 28673"
    },
    {
      "name": "SES-14",
      "catnr": 43175,
      "orbit": "GEO",
      "line0": "SES-14",
      "line1": "1 43175U 18012B   26094.22753240 -.00000279  00000+0  00000+0 0  9995",
      "line2": "2 43175   0.0080 136.1382 0000864 247.4246 203.3942  1.00271289  6280"
    },
    {
      "name": "SES-15",
      "catnr": 42709,
      "orbit": "GEO",
      "line0": "SES-15",
      "line1": "1 42709U 17026A   26093.64002528  .00000058  00000+0  00000+0 0  9996",
      "line2": "2 42709   0.0340 327.2328 0000758  49.7417 276.2283  1.00269959  6681"
    },
    {
      "name": "SES-17",
      "catnr": 49332,
      "orbit": "GEO",
      "line0": "SES-17",
      "line1": "1 49332U 21095A   26094.23426670 -.00000273  00000+0  00000+0 0  9990",
      "line2": "2 49332   0.0374  41.8495 0000681 351.0605 176.8784  1.00272029 17117"
    },
    {
      "name": "AMC-9",
      "catnr": 27820,
      "orbit": "GEO",
      "line0": "AMC-9 (GE-12)",
      "line1": "1 27820U 03024A   26094.20947995 -.00000226  00000+0  00000+0 0  9993",
      "line2": "2 27820   7.7366  66.5693 0018047 340.9717  28.2756  0.99035808 83267"
    },
    {
      "name": "NSS-12",
      "catnr": 36032,
      "orbit": "GEO",
      "line0": "NSS-12",
      "line1": "1 36032U 09058A   26094.18755319  .00000071  00000+0  00000+0 0  9992",
      "line2": "2 36032   0.0730  61.1201 0005061 297.3560 318.5480  1.00271262 60175"
    },
    {
      "name": "O3b mPOWER F1",
      "catnr": 54755,
      "orbit": "MEO",
      "line0": "O3B MPOWER F1",
      "line1": "1 54755U 22174A   26094.20609994 -.00000026  00000+0  00000+0 0  9999",
      "line2": "2 54755   0.0622 349.0208 0005613  42.2667   8.6694  5.00114902 61659"
    },
    {
      "name": "O3b mPOWER F2",
      "catnr": 54756,
      "orbit": "MEO",
      "line0": "O3B MPOWER F2",
      "line1": "1 54756U 22174B   26094.15057011 -.00000026  00000+0  00000+0 0  9991",
      "line2": "2 54756   0.0594 346.2389 0005932  26.2539 347.5204  5.00115558 61741"
    },
    {
      "name": "O3b mPOWER F3",
      "catnr": 56368,
      "orbit": "MEO",
      "line0": "O3B MPOWER F3",
      "line1": "1 56368U 23059B   26094.04831837 -.00000026  00000+0  00000+0 0  9999",
      "line2": "2 56368   0.0653   4.5393 0006590  12.4195 343.0615  5.00116730 51012"
    },
    {
      "name": "O3b mPOWER F4",
      "catnr": 56367,
      "orbit": "MEO",
      "line0": "O3B MPOWER F4",
      "line1": "1 56367U 23059A   26093.81512735 -.00000026  00000+0  00000+0 0  9995",
      "line2": "2 56367   0.0642   4.5664 0007014  22.3032 333.1650  5.00116126 54888"
    },
    {
      "name": "O3b mPOWER F5",
      "catnr": 58346,
      "orbit": "MEO",
      "line0": "O3B MPOWER F5",
      "line1": "1 58346U 23175A   26094.14899909 -.00000026  00000+0  00000+0 0  9991",
      "line2": "2 58346   0.0427   8.7914 0004273  14.3308 336.8954  5.00115699 45738"
    },
    {
      "name": "O3b mPOWER F6",
      "catnr": 58347,
      "orbit": "MEO",
      "line0": "O3B MPOWER F6",
      "line1": "1 58347U 23175B   26094.04980277 -.00000026  00000+0  00000+0 0  9990",
      "line2": "2 58347   0.0501   5.2633 0004876 357.1127 357.6247  5.00116416 44641"
    }
  ]
}